[{"OBJECT_NAME":"ONEWEB-0504","OBJECT_ID":"2022-138K","EPOCH":"2026-06-15T07:24:28.775232","MEAN_MOTION":13.19725337,"ECCENTRICITY":0.0001649,"INCLINATION":87.9175,"RA_OF_ASC_NODE":305.3395,"ARG_OF_PERICENTER":94.481,"MEAN_ANOMALY":265.6511,"EPHEMERIS_TYPE":0,"CLASSIFICATION_TYPE":"U","NORAD_CAT_ID":54122,"ELEMENT_SET_NO":999,"REV_AT_EPOCH":17658,"BSTAR":-2.8531000000000002e-05,"MEAN_MOTION_DOT":2e-08,"MEAN_MOTION_DDOT":0.0},{"OBJECT_NAME":"ONEWEB-0505","OBJECT_ID":"2022-138L","EPOCH":"2026-06-15T01:52:24.364128","MEAN_MOTION":13.19726032,"ECCENTRICITY":0.0001393,"INCLINATION":87.9173,"RA_OF_ASC_NODE":305.3866,"ARG_OF_PERICENTER":96.9603,"MEAN_ANOMALY":263.1688,"EPHEMERIS_TYPE":0,"CLASSIFICATION_TYPE":"U","NORAD_CAT_ID":54123,"ELEMENT_SET_NO":999,"REV_AT_EPOCH":17653,"BSTAR":-0.00022649,"MEAN_MOTION_DOT":-7.8e-07,"MEAN_MOTION_DDOT":0.0},{"OBJECT_NAME":"ONEWEB-0506","OBJECT_ID":"2022-138M","EPOCH":"2026-06-15T03:05:10.079232","MEAN_MOTION":13.19723319,"ECCENTRICITY":0.0001527,"INCLINATION":87.9179,"RA_OF_ASC_NODE":305.3735,"ARG_OF_PERICENTER":99.6234,"MEAN_ANOMALY":260.5071,"EPHEMERIS_TYPE":0,"CLASSIFICATION_TYPE":"U","NORAD_CAT_ID":54124,"ELEMENT_SET_NO":999,"REV_AT_EPOCH":17653,"BSTAR":-0.00010240000000000001,"MEAN_MOTION_DOT":-2.8e-07,"MEAN_MOTION_DDOT":0.0},{"OBJECT_NAME":"ONEWEB-0507","OBJECT_ID":"2022-138N","EPOCH":"2026-06-14T22:07:13.567584","MEAN_MOTION":13.19725039,"ECCENTRICITY":0.0001655,"INCLINATION":87.9166,"RA_OF_ASC_NODE":305.4271,"ARG_OF_PERICENTER":100.6403,"MEAN_ANOMALY":259.4916,"EPHEMERIS_TYPE":0,"CLASSIFICATION_TYPE":"U","NORAD_CAT_ID":54125,"ELEMENT_SET_NO":999,"REV_AT_EPOCH":17655,"BSTAR":-0.00011693000000000001,"MEAN_MOTION_DOT":-3.4e-07,"MEAN_MOTION_DDOT":0.0},{"OBJECT_NAME":"ONEWEB-0508","OBJECT_ID":"2022-138P","EPOCH":"2026-06-15T07:08:32.635680","MEAN_MOTION":13.19724323,"ECCENTRICITY":0.0001494,"INCLINATION":87.9168,"RA_OF_ASC_NODE":305.3517,"ARG_OF_PERICENTER":107.6983,"MEAN_ANOMALY":252.4313,"EPHEMERIS_TYPE":0,"CLASSIFICATION_TYPE":"U","NORAD_CAT_ID":54126,"ELEMENT_SET_NO":999,"REV_AT_EPOCH":17658,"BSTAR":3.3914e-05,"MEAN_MOTION_DOT":2.7e-07,"MEAN_MOTION_DDOT":0.0},{"OBJECT_NAME":"ONEWEB-0509","OBJECT_ID":"2022-138Q","EPOCH":"2026-06-14T21:26:16.101888","MEAN_MOTION":13.19719549,"ECCENTRICITY":0.000169,"INCLINATION":87.9177,"RA_OF_ASC_NODE":305.4215,"ARG_OF_PERICENTER":99.6122,"MEAN_ANOMALY":260.5201,"EPHEMERIS_TYPE":0,"CLASSIFICATION_TYPE":"U","NORAD_CAT_ID":54127,"ELEMENT_SET_NO":999,"REV_AT_EPOCH":17650,"BSTAR":-0.00017232,"MEAN_MOTION_DOT":-5.6e-07,"MEAN_MOTION_DDOT":0.0},{"OBJECT_NAME":"ONEWEB-0510","OBJECT_ID":"2022-138R","EPOCH":"2026-06-15T07:31:57.342432","MEAN_MOTION":13.20772873,"ECCENTRICITY":0.000241,"INCLINATION":87.9193,"RA_OF_ASC_NODE":274.8089,"ARG_OF_PERICENTER":96.0397,"MEAN_ANOMALY":264.1011,"EPHEMERIS_TYPE":0,"CLASSIFICATION_TYPE":"U","NORAD_CAT_ID":54128,"ELEMENT_SET_NO":999,"REV_AT_EPOCH":17903,"BSTAR":0.00020164000000000003,"MEAN_MOTION_DOT":9.5e-07,"MEAN_MOTION_DDOT":0.0},{"OBJECT_NAME":"ONEWEB-0511","OBJECT_ID":"2022-138S","EPOCH":"2026-06-14T21:21:44.213184","MEAN_MOTION":13.19725891,"ECCENTRICITY":0.0001767,"INCLINATION":87.9174,"RA_OF_ASC_NODE":305.4251,"ARG_OF_PERICENTER":89.1586,"MEAN_ANOMALY":270.9749,"EPHEMERIS_TYPE":0,"CLASSIFICATION_TYPE":"U","NORAD_CAT_ID":54129,"ELEMENT_SET_NO":999,"REV_AT_EPOCH":17653,"BSTAR":-2.6516e-05,"MEAN_MOTION_DOT":2e-08,"MEAN_MOTION_DDOT":0.0},{"OBJECT_NAME":"ONEWEB-0512","OBJECT_ID":"2022-138T","EPOCH":"2026-06-15T02:37:52.883904","MEAN_MOTION":13.19724955,"ECCENTRICITY":0.0001524,"INCLINATION":87.9166,"RA_OF_ASC_NODE":305.3866,"ARG_OF_PERICENTER":94.2779,"MEAN_ANOMALY":265.8528,"EPHEMERIS_TYPE":0,"CLASSIFICATION_TYPE":"U","NORAD_CAT_ID":54130,"ELEMENT_SET_NO":999,"REV_AT_EPOCH":17653,"BSTAR":0.00015686,"MEAN_MOTION_DOT":7.6e-07,"MEAN_MOTION_DDOT":0.0},{"OBJECT_NAME":"ONEWEB-0513","OBJECT_ID":"2022-138U","EPOCH":"2026-06-15T02:47:12.004224","MEAN_MOTION":13.2026849,"ECCENTRICITY":0.0001203,"INCLINATION":87.9174,"RA_OF_ASC_NODE":305.3295,"ARG_OF_PERICENTER":72.2902,"MEAN_ANOMALY":287.8363,"EPHEMERIS_TYPE":0,"CLASSIFICATION_TYPE":"U","NORAD_CAT_ID":54131,"ELEMENT_SET_NO":999,"REV_AT_EPOCH":17644,"BSTAR":0.00012824,"MEAN_MOTION_DOT":6.5e-07,"MEAN_MOTION_DDOT":0.0},{"OBJECT_NAME":"ONEWEB-0514","OBJECT_ID":"2022-138V","EPOCH":"2026-06-15T03:00:37.634112","MEAN_MOTION":13.19724722,"ECCENTRICITY":0.0002031,"INCLINATION":87.9183,"RA_OF_ASC_NODE":305.377,"ARG_OF_PERICENTER":94.3484,"MEAN_ANOMALY":265.7881,"EPHEMERIS_TYPE":0,"CLASSIFICATION_TYPE":"U","NORAD_CAT_ID":54132,"ELEMENT_SET_NO":999,"REV_AT_EPOCH":17655,"BSTAR":0.00044166,"MEAN_MOTION_DOT":1.9e-06,"MEAN_MOTION_DDOT":0.0},{"OBJECT_NAME":"ONEWEB-0515","OBJECT_ID":"2022-138W","EPOCH":"2026-06-15T07:12:33.085152","MEAN_MOTION":13.2077038,"ECCENTRICITY":0.0002687,"INCLINATION":87.9198,"RA_OF_ASC_NODE":274.8061,"ARG_OF_PERICENTER":112.1663,"MEAN_ANOMALY":247.9756,"EPHEMERIS_TYPE":0,"CLASSIFICATION_TYPE":"U","NORAD_CAT_ID":54133,"ELEMENT_SET_NO":999,"REV_AT_EPOCH":17905,"BSTAR":0.00016470000000000002,"MEAN_MOTION_DOT":8e-07,"MEAN_MOTION_DDOT":0.0},{"OBJECT_NAME":"ONEWEB-0516","OBJECT_ID":"2022-138X","EPOCH":"2026-06-15T02:24:13.716000","MEAN_MOTION":13.19725368,"ECCENTRICITY":0.0001803,"INCLINATION":87.9164,"RA_OF_ASC_NODE":305.3884,"ARG_OF_PERICENTER":102.6545,"MEAN_ANOMALY":257.479,"EPHEMERIS_TYPE":0,"CLASSIFICATION_TYPE":"U","NORAD_CAT_ID":54134,"ELEMENT_SET_NO":999,"REV_AT_EPOCH":17655,"BSTAR":-2.5640000000000002e-05,"MEAN_MOTION_DOT":3e-08,"MEAN_MOTION_DDOT":0.0},{"OBJECT_NAME":"ONEWEB-0517","OBJECT_ID":"2022-138Y","EPOCH":"2026-06-15T01:54:39.924864","MEAN_MOTION":13.19724655,"ECCENTRICITY":0.0001939,"INCLINATION":87.9174,"RA_OF_ASC_NODE":305.3846,"ARG_OF_PERICENTER":88.9654,"MEAN_ANOMALY":271.1701,"EPHEMERIS_TYPE":0,"CLASSIFICATION_TYPE":"U","NORAD_CAT_ID":54135,"ELEMENT_SET_NO":999,"REV_AT_EPOCH":17655,"BSTAR":-0.00016958,"MEAN_MOTION_DOT":-5.5e-07,"MEAN_MOTION_DDOT":0.0},{"OBJECT_NAME":"ONEWEB-0518","OBJECT_ID":"2022-138Z","EPOCH":"2026-06-15T02:21:59.200704","MEAN_MOTION":13.19727807,"ECCENTRICITY":0.0001822,"INCLINATION":87.9166,"RA_OF_ASC_NODE":305.3907,"ARG_OF_PERICENTER":104.5694,"MEAN_ANOMALY":255.5641,"EPHEMERIS_TYPE":0,"CLASSIFICATION_TYPE":"U","NORAD_CAT_ID":54136,"ELEMENT_SET_NO":999,"REV_AT_EPOCH":17655,"BSTAR":-8.696100000000001e-05,"MEAN_MOTION_DOT":-2.2e-07,"MEAN_MOTION_DDOT":0.0},{"OBJECT_NAME":"ONEWEB-0519","OBJECT_ID":"2022-138AA","EPOCH":"2026-06-15T02:58:21.999936","MEAN_MOTION":13.19726126,"ECCENTRICITY":0.000192,"INCLINATION":87.9179,"RA_OF_ASC_NODE":305.3767,"ARG_OF_PERICENTER":92.5469,"MEAN_ANOMALY":267.5884,"EPHEMERIS_TYPE":0,"CLASSIFICATION_TYPE":"U","NORAD_CAT_ID":54137,"ELEMENT_SET_NO":999,"REV_AT_EPOCH":17656,"BSTAR":4.146800000000001e-06,"MEAN_MOTION_DOT":1.5e-07,"MEAN_MOTION_DDOT":0.0}]